CCSDS_OMM_VERS = 2.0
CREATION_DATE  = 
ORIGINATOR     = 

OBJECT_NAME    = SL-14 R/B
OBJECT_ID      = 1986-046B
CENTER_NAME    = EARTH
REF_FRAME      = TEME
TIME_SYSTEM    = UTC
MEAN_ELEMENT_THEORY = SGP/SGP4

EPOCH          = 2026-04-01T23:27:19.342080
MEAN_MOTION    = 14.85613894
ECCENTRICITY   = .0023894
INCLINATION    = 82.4811
RA_OF_ASC_NODE = 58.1731
ARG_OF_PERICENTER = 147.7258
MEAN_ANOMALY   = 212.5426

EPHEMERIS_TYPE = 0
CLASSIFICATION_TYPE = U
NORAD_CAT_ID   = 16792
ELEMENT_SET_NO = 999
REV_AT_EPOCH   = 12986
BSTAR          = .68226E-4
MEAN_MOTION_DOT = .618E-5
MEAN_MOTION_DDOT = 0

CCSDS_OMM_VERS = 2.0
CREATION_DATE  = 
ORIGINATOR     = 

OBJECT_NAME    = SL-14 R/B
OBJECT_ID      = 1986-055B
CENTER_NAME    = EARTH
REF_FRAME      = TEME
TIME_SYSTEM    = UTC
MEAN_ELEMENT_THEORY = SGP/SGP4

EPOCH          = 2026-04-02T02:33:49.864032
MEAN_MOTION    = 14.85663932
ECCENTRICITY   = .0017371
INCLINATION    = 82.5169
RA_OF_ASC_NODE = 104.6574
ARG_OF_PERICENTER = 253.3776
MEAN_ANOMALY   = 168.4326

EPHEMERIS_TYPE = 0
CLASSIFICATION_TYPE = U
NORAD_CAT_ID   = 16882
ELEMENT_SET_NO = 999
REV_AT_EPOCH   = 12284
BSTAR          = .58759E-4
MEAN_MOTION_DOT = .534E-5
MEAN_MOTION_DDOT = 0

CCSDS_OMM_VERS = 2.0
CREATION_DATE  = 
ORIGINATOR     = 

OBJECT_NAME    = AJISAI (EGS)
OBJECT_ID      = 1986-061A
CENTER_NAME    = EARTH
REF_FRAME      = TEME
TIME_SYSTEM    = UTC
MEAN_ELEMENT_THEORY = SGP/SGP4

EPOCH          = 2026-04-02T04:25:59.985120
MEAN_MOTION    = 12.44515656
ECCENTRICITY   = .0011356
INCLINATION    = 50.0119
RA_OF_ASC_NODE = 21.1001
ARG_OF_PERICENTER = 347.4767
MEAN_ANOMALY   = 169.7358

EPHEMERIS_TYPE = 0
CLASSIFICATION_TYPE = U
NORAD_CAT_ID   = 16908
ELEMENT_SET_NO = 999
REV_AT_EPOCH   = 47092
BSTAR          = .16201E-4
MEAN_MOTION_DOT = -.95E-6
MEAN_MOTION_DDOT = 0

CCSDS_OMM_VERS = 2.0
CREATION_DATE  = 
ORIGINATOR     = 

OBJECT_NAME    = SL-14 R/B
OBJECT_ID      = 1987-024B
CENTER_NAME    = EARTH
REF_FRAME      = TEME
TIME_SYSTEM    = UTC
MEAN_ELEMENT_THEORY = SGP/SGP4

EPOCH          = 2026-04-02T04:54:03.661056
MEAN_MOTION    = 14.86156147
ECCENTRICITY   = .0018207
INCLINATION    = 82.5260
RA_OF_ASC_NODE = 70.6562
ARG_OF_PERICENTER = 177.9318
MEAN_ANOMALY   = 182.1978

EPHEMERIS_TYPE = 0
CLASSIFICATION_TYPE = U
NORAD_CAT_ID   = 17567
ELEMENT_SET_NO = 999
REV_AT_EPOCH   = 9162
BSTAR          = .80037E-4
MEAN_MOTION_DOT = .728E-5
MEAN_MOTION_DDOT = 0

CCSDS_OMM_VERS = 2.0
CREATION_DATE  = 
ORIGINATOR     = 

OBJECT_NAME    = COSMOS 1833
OBJECT_ID      = 1987-027A
CENTER_NAME    = EARTH
REF_FRAME      = TEME
TIME_SYSTEM    = UTC
MEAN_ELEMENT_THEORY = SGP/SGP4

EPOCH          = 2026-04-01T22:30:23.186304
MEAN_MOTION    = 14.13045447
ECCENTRICITY   = .0023072
INCLINATION    = 70.9166
RA_OF_ASC_NODE = 277.1532
ARG_OF_PERICENTER = 180.0089
MEAN_ANOMALY   = 180.1036

EPHEMERIS_TYPE = 0
CLASSIFICATION_TYPE = U
NORAD_CAT_ID   = 17589
ELEMENT_SET_NO = 999
REV_AT_EPOCH   = 1360
BSTAR          = -.13808E-3
MEAN_MOTION_DOT = -.307E-5
MEAN_MOTION_DDOT = 0

CCSDS_OMM_VERS = 2.0
CREATION_DATE  = 
ORIGINATOR     = 

OBJECT_NAME    = SL-16 R/B
OBJECT_ID      = 1987-027B
CENTER_NAME    = EARTH
REF_FRAME      = TEME
TIME_SYSTEM    = UTC
MEAN_ELEMENT_THEORY = SGP/SGP4

EPOCH          = 2026-04-02T03:01:54.318432
MEAN_MOTION    = 14.17167195
ECCENTRICITY   = .0002881
INCLINATION    = 71.0021
RA_OF_ASC_NODE = 227.1042
ARG_OF_PERICENTER = 83.9494
MEAN_ANOMALY   = 276.1958

EPHEMERIS_TYPE = 0
CLASSIFICATION_TYPE = U
NORAD_CAT_ID   = 17590
ELEMENT_SET_NO = 999
REV_AT_EPOCH   = 1866
BSTAR          = .14584E-3
MEAN_MOTION_DOT = .246E-5
MEAN_MOTION_DDOT = 0

CCSDS_OMM_VERS = 2.0
CREATION_DATE  = 
ORIGINATOR     = 

OBJECT_NAME    = SL-14 R/B
OBJECT_ID      = 1987-038B
CENTER_NAME    = EARTH
REF_FRAME      = TEME
TIME_SYSTEM    = UTC
MEAN_ELEMENT_THEORY = SGP/SGP4

EPOCH          = 2026-04-02T00:13:10.788096
MEAN_MOTION    = 14.85391290
ECCENTRICITY   = .0020762
INCLINATION    = 82.4977
RA_OF_ASC_NODE = 274.8328
ARG_OF_PERICENTER = 87.8305
MEAN_ANOMALY   = 272.5288

EPHEMERIS_TYPE = 0
CLASSIFICATION_TYPE = U
NORAD_CAT_ID   = 17912
ELEMENT_SET_NO = 999
REV_AT_EPOCH   = 8269
BSTAR          = .63968E-4
MEAN_MOTION_DOT = .577E-5
MEAN_MOTION_DDOT = 0

CCSDS_OMM_VERS = 2.0
CREATION_DATE  = 
ORIGINATOR     = 

OBJECT_NAME    = COSMOS 1844
OBJECT_ID      = 1987-041A
CENTER_NAME    = EARTH
REF_FRAME      = TEME
TIME_SYSTEM    = UTC
MEAN_ELEMENT_THEORY = SGP/SGP4

EPOCH          = 2026-04-02T03:50:51.087264
MEAN_MOTION    = 14.14560339
ECCENTRICITY   = .0031351
INCLINATION    = 70.9017
RA_OF_ASC_NODE = 344.6722
ARG_OF_PERICENTER = 343.4615
MEAN_ANOMALY   = 16.5480

EPHEMERIS_TYPE = 0
CLASSIFICATION_TYPE = U
NORAD_CAT_ID   = 17973
ELEMENT_SET_NO = 999
REV_AT_EPOCH   = 690
BSTAR          = .235E-3
MEAN_MOTION_DOT = .405E-5
MEAN_MOTION_DDOT = 0

CCSDS_OMM_VERS = 2.0
CREATION_DATE  = 
ORIGINATOR     = 

OBJECT_NAME    = SL-14 R/B
OBJECT_ID      = 1987-055B
CENTER_NAME    = EARTH
REF_FRAME      = TEME
TIME_SYSTEM    = UTC
MEAN_ELEMENT_THEORY = SGP/SGP4

EPOCH          = 2026-04-02T02:47:54.027456
MEAN_MOTION    = 14.85652446
ECCENTRICITY   = .0019297
INCLINATION    = 82.4999
RA_OF_ASC_NODE = 326.9544
ARG_OF_PERICENTER = 298.3745
MEAN_ANOMALY   = 61.5525

EPHEMERIS_TYPE = 0
CLASSIFICATION_TYPE = U
NORAD_CAT_ID   = 18153
ELEMENT_SET_NO = 999
REV_AT_EPOCH   = 7341
BSTAR          = .53118E-4
MEAN_MOTION_DOT = .485E-5
MEAN_MOTION_DDOT = 0

CCSDS_OMM_VERS = 2.0
CREATION_DATE  = 
ORIGINATOR     = 

OBJECT_NAME    = COSMOS 1867
OBJECT_ID      = 1987-060A
CENTER_NAME    = EARTH
REF_FRAME      = TEME
TIME_SYSTEM    = UTC
MEAN_ELEMENT_THEORY = SGP/SGP4

EPOCH          = 2026-04-02T02:59:00.078144
MEAN_MOTION    = 14.31506751
ECCENTRICITY   = .0014901
INCLINATION    = 65.0099
RA_OF_ASC_NODE = 241.0732
ARG_OF_PERICENTER = 280.0256
MEAN_ANOMALY   = 79.9147

EPHEMERIS_TYPE = 0
CLASSIFICATION_TYPE = U
NORAD_CAT_ID   = 18187
ELEMENT_SET_NO = 999
REV_AT_EPOCH   = 2329
BSTAR          = .3189E-4
MEAN_MOTION_DOT = -.15E-6
MEAN_MOTION_DDOT = 0

CCSDS_OMM_VERS = 2.0
CREATION_DATE  = 
ORIGINATOR     = 

OBJECT_NAME    = SL-14 R/B
OBJECT_ID      = 1988-001B
CENTER_NAME    = EARTH
REF_FRAME      = TEME
TIME_SYSTEM    = UTC
MEAN_ELEMENT_THEORY = SGP/SGP4

EPOCH          = 2026-04-01T23:29:34.778400
MEAN_MOTION    = 14.85553405
ECCENTRICITY   = .0018684
INCLINATION    = 82.5158
RA_OF_ASC_NODE = 173.4631
ARG_OF_PERICENTER = 157.0930
MEAN_ANOMALY   = 203.1123

EPHEMERIS_TYPE = 0
CLASSIFICATION_TYPE = U
NORAD_CAT_ID   = 18749
ELEMENT_SET_NO = 999
REV_AT_EPOCH   = 4548
BSTAR          = .61934E-4
MEAN_MOTION_DOT = .561E-5
MEAN_MOTION_DDOT = 0

CCSDS_OMM_VERS = 2.0
CREATION_DATE  = 
ORIGINATOR     = 

OBJECT_NAME    = COSMOS 1933
OBJECT_ID      = 1988-020A
CENTER_NAME    = EARTH
REF_FRAME      = TEME
TIME_SYSTEM    = UTC
MEAN_ELEMENT_THEORY = SGP/SGP4

EPOCH          = 2026-04-01T19:03:34.300800
MEAN_MOTION    = 15.18209210
ECCENTRICITY   = .00055024
INCLINATION    = 82.5128
RA_OF_ASC_NODE = 228.0466
ARG_OF_PERICENTER = 114.1422
MEAN_ANOMALY   = 246.0388

EPHEMERIS_TYPE = 0
CLASSIFICATION_TYPE = U
NORAD_CAT_ID   = 18958
ELEMENT_SET_NO = 999
REV_AT_EPOCH   = 5373
BSTAR          = .3009576E-3
MEAN_MOTION_DOT = .6186E-4
MEAN_MOTION_DDOT = 0

