SL-14 R/B               
1 16792U 86046B   26091.97730720  .00000618  00000+0  68226-4 0  9994
2 16792  82.4811  58.1731 0023894 147.7258 212.5426 14.85613894129863
SL-14 R/B               
1 16882U 86055B   26092.10682713  .00000534  00000+0  58759-4 0  9995
2 16882  82.5169 104.6574 0017371 253.3776 168.4326 14.85663932122841
AJISAI (EGS)            
1 16908U 86061A   26092.18472205 -.00000095  00000+0  16201-4 0  9991
2 16908  50.0119  21.1001 0011356 347.4767 169.7358 12.44515656470921
SL-14 R/B               
1 17567U 87024B   26092.20420904  .00000728  00000+0  80037-4 0  9995
2 17567  82.5260  70.6562 0018207 177.9318 182.1978 14.86156147 91628
COSMOS 1833             
1 17589U 87027A   26091.93776836 -.00000307  00000+0 -13808-3 0  9995
2 17589  70.9166 277.1532 0023072 180.0089 180.1036 14.13045447 13600
SL-16 R/B               
1 17590U 87027B   26092.12632313  .00000246  00000+0  14584-3 0  9992
2 17590  71.0021 227.1042 0002881  83.9494 276.1958 14.17167195 18660
SL-14 R/B               
1 17912U 87038B   26092.00915264  .00000577  00000+0  63968-4 0  9996
2 17912  82.4977 274.8328 0020762  87.8305 272.5288 14.85391290 82692
COSMOS 1844             
1 17973U 87041A   26092.16031351  .00000405  00000+0  23500-3 0  9997
2 17973  70.9017 344.6722 0031351 343.4615  16.5480 14.14560339  6905
SL-14 R/B               
1 18153U 87055B   26092.11659754  .00000485  00000+0  53118-4 0  9998
2 18153  82.4999 326.9544 0019297 298.3745  61.5525 14.85652446 73414
COSMOS 1867             
1 18187U 87060A   26092.12430646 -.00000015  00000+0  31890-4 0  9992
2 18187  65.0099 241.0732 0014901 280.0256  79.9147 14.31506751 23299
SL-14 R/B               
1 18749U 88001B   26091.97887475  .00000561  00000+0  61934-4 0  9997
2 18749  82.5158 173.4631 0018684 157.0930 203.1123 14.85553405 45480
COSMOS 1933             
1 18958U 88020A   26091.79414700  .00006186  00000+0  30096-3 0  9990
2 18958  82.5128 228.0466 0005502 114.1422 246.0388 15.18209210 53732
